{
    "links": {
        "self": "http://www.neowsapp.com/rest/v1/neo/3632242?api_key=iIulBulltgU6a56xZRHN4H3l9WmuAYTsLGpBGhQ2"
    },
    "id": "3632242",
    "neo_reference_id": "3632242",
    "name": "(2013 EO89)",
    "designation": "2013 EO89",
    "nasa_jpl_url": "http://ssd.jpl.nasa.gov/sbdb.cgi?sstr=3632242",
    "absolute_magnitude_h": 25.5,
    "estimated_diameter": {
        "kilometers": {
            "estimated_diameter_min": 0.0211132445,
            "estimated_diameter_max": 0.0472106499
        },
        "meters": {
            "estimated_diameter_min": 21.113244479,
            "estimated_diameter_max": 47.2106498806
        },
        "miles": {
            "estimated_diameter_min": 0.0131191578,
            "estimated_diameter_max": 0.0293353287
        },
        "feet": {
            "estimated_diameter_min": 69.2691770164,
            "estimated_diameter_max": 154.8905885541
        }
    },
    "is_potentially_hazardous_asteroid": false,
    "close_approach_data": [
        {
            "close_approach_date": "2013-03-03",
            "close_approach_date_full": "2013-Mar-03 00:26",
            "epoch_date_close_approach": 1362270360000,
            "relative_velocity": {
                "kilometers_per_second": "7.026921634",
                "kilometers_per_hour": "25296.9178824426",
                "miles_per_hour": "15718.521003121"
            },
            "miss_distance": {
                "astronomical": "0.1061052886",
                "lunar": "41.2749572654",
                "kilometers": "15873125.170295282",
                "miles": "9863102.6226756116"
            },
            "orbiting_body": "Earth"
        }
    ],
    "orbital_data": {
        "orbit_id": "5",
        "orbit_determination_date": "2017-04-06 08:46:26",
        "first_observation_date": "2013-03-14",
        "last_observation_date": "2013-03-20",
        "data_arc_in_days": 6,
        "observations_used": 22,
        "orbit_uncertainty": "8",
        "minimum_orbit_intersection": ".103876",
        "jupiter_tisserand_invariant": "4.737",
        "epoch_osculation": "2456366.5",
        "eccentricity": ".250655533549656",
        "semi_major_axis": "1.383818177094773",
        "inclination": "12.00271587210609",
        "ascending_node_longitude": "356.3890273581315",
        "orbital_period": "594.5891408758949",
        "perihelion_distance": "1.03695649357937",
        "perihelion_argument": "128.6680527823773",
        "aphelion_distance": "1.730679860610175",
        "perihelion_time": "2456316.878207995710",
        "mean_anomaly": "30.04401509120903",
        "mean_motion": ".605460098833424",
        "equinox": "J2000",
        "orbit_class": {
            "orbit_class_type": "AMO",
            "orbit_class_description": "Near-Earth asteroid orbits similar to that of 1221 Amor",
            "orbit_class_range": "1.017 AU < q (perihelion) < 1.3 AU"
        }
    },
    "is_sentry_object": false
}